{
  "type": "FeatureCollection",
  "features": [
    {
      "type": "Feature",
      "properties": {
        "norad_id": 30250,
        "name": "FENGYUN 1C DEB",
        "group": "fengyun-1c-debris",
        "lat": -32.91482846742582,
        "lon": -6.54080851773325,
        "alt_km": 926.0009348872563,
        "timestamp": "2025-12-22T04:03:39.444056+00:00",
        "meta_object_name": "FENGYUN 1C DEB",
        "meta_object_id": "1999-025XK",
        "meta_epoch": "2025-12-21T13:24:58.826016",
        "meta_mean_motion": 14.01634295,
        "meta_eccentricity": 0.0068391,
        "meta_inclination": 98.7545,
        "meta_ra_of_asc_node": 347.1493,
        "meta_arg_of_pericenter": 198.3745,
        "meta_mean_anomaly": 290.5158,
        "meta_ephemeris_type": 0,
        "meta_classification_type": "U",
        "meta_norad_cat_id": 30250,
        "meta_element_set_no": 999,
        "meta_rev_at_epoch": 96615,
        "meta_bstar": 0.00022156,
        "meta_mean_motion_dot": 3e-06,
        "meta_mean_motion_ddot": 0,
        "tle_line1": "1 30250U 99025XK  25355.55901419  .00000300  00000+0  22156-3 0  9990",
        "tle_line2": "2 30250  98.7545 347.1493 0068391 198.3745 290.5158 14.01634295966157"
      },
      "geometry": {
        "type": "Point",
        "coordinates": [
          -6.54080851773325,
          -32.91482846742582
        ]
      }
    },
    {
      "type": "Feature",
      "properties": {
        "norad_id": 30251,
        "name": "FENGYUN 1C DEB",
        "group": "fengyun-1c-debris",
        "lat": -67.81797761464881,
        "lon": -8.157111190199629,
        "alt_km": 778.9704336141849,
        "timestamp": "2025-12-22T04:03:39.444066+00:00",
        "meta_object_name": "FENGYUN 1C DEB",
        "meta_object_id": "1999-025XL",
        "meta_epoch": "2025-12-21T20:13:49.939104",
        "meta_mean_motion": 14.29324334,
        "meta_eccentricity": 0.0051475,
        "meta_inclination": 99.0488,
        "meta_ra_of_asc_node": 194.5117,
        "meta_arg_of_pericenter": 303.7731,
        "meta_mean_anomaly": 68.4308,
        "meta_ephemeris_type": 0,
        "meta_classification_type": "U",
        "meta_norad_cat_id": 30251,
        "meta_element_set_no": 999,
        "meta_rev_at_epoch": 98272,
        "meta_bstar": 0.00037739,
        "meta_mean_motion_dot": 9.26e-06,
        "meta_mean_motion_ddot": 0,
        "tle_line1": "1 30251U 99025XL  25355.84293911  .00000926  00000+0  37739-3 0  9991",
        "tle_line2": "2 30251  99.0488 194.5117 0051475 303.7731  68.4308 14.29324334982727"
      },
      "geometry": {
        "type": "Point",
        "coordinates": [
          -8.157111190199629,
          -67.81797761464881
        ]
      }
    },
    {
      "type": "Feature",
      "properties": {
        "norad_id": 30252,
        "name": "FENGYUN 1C DEB",
        "group": "fengyun-1c-debris",
        "lat": 9.779077306492844,
        "lon": -167.543224003736,
        "alt_km": 827.6463841472059,
        "timestamp": "2025-12-22T04:03:39.444076+00:00",
        "meta_object_name": "FENGYUN 1C DEB",
        "meta_object_id": "1999-025XM",
        "meta_epoch": "2025-12-21T06:52:28.809120",
        "meta_mean_motion": 14.09723506,
        "meta_eccentricity": 0.0066231,
        "meta_inclination": 98.7428,
        "meta_ra_of_asc_node": 10.0796,
        "meta_arg_of_pericenter": 217.239,
        "meta_mean_anomaly": 155.7594,
        "meta_ephemeris_type": 0,
        "meta_classification_type": "U",
        "meta_norad_cat_id": 30252,
        "meta_element_set_no": 999,
        "meta_rev_at_epoch": 97086,
        "meta_bstar": 0.0003462,
        "meta_mean_motion_dot": 5.77e-06,
        "meta_mean_motion_ddot": 0,
        "tle_line1": "1 30252U 99025XM  25355.28644455  .00000577  00000+0  34620-3 0  9991",
        "tle_line2": "2 30252  98.7428  10.0796 0066231 217.2390 155.7594 14.09723506970860"
      },
      "geometry": {
        "type": "Point",
        "coordinates": [
          -167.543224003736,
          9.779077306492844
        ]
      }
    },
    {
      "type": "Feature",
      "properties": {
        "norad_id": 30253,
        "name": "FENGYUN 1C DEB",
        "group": "fengyun-1c-debris",
        "lat": 13.001661505137811,
        "lon": -94.52716040134838,
        "alt_km": 1130.2967136294337,
        "timestamp": "2025-12-22T04:03:39.444086+00:00",
        "meta_object_name": "FENGYUN 1C DEB",
        "meta_object_id": "1999-025XN",
        "meta_epoch": "2025-12-21T01:37:05.371392",
        "meta_mean_motion": 13.7321242,
        "meta_eccentricity": 0.02209955,
        "meta_inclination": 98.7518,
        "meta_ra_of_asc_node": 82.426,
        "meta_arg_of_pericenter": 18.8804,
        "meta_mean_anomaly": 102.7897,
        "meta_ephemeris_type": 0,
        "meta_classification_type": "U",
        "meta_norad_cat_id": 30253,
        "meta_element_set_no": 999,
        "meta_rev_at_epoch": 94128,
        "meta_bstar": 0.0015116622,
        "meta_mean_motion_dot": 1.63e-05,
        "meta_mean_motion_ddot": 0,
        "tle_line1": "1 30253U 99025XN  25355.06742328  .00001630  00000+0  15117-2 0  9996",
        "tle_line2": "2 30253  98.7518  82.4260 0220995  18.8804 102.7897 13.73212420941284"
      },
      "geometry": {
        "type": "Point",
        "coordinates": [
          -94.52716040134838,
          13.001661505137811
        ]
      }
    },
    {
      "type": "Feature",
      "properties": {
        "norad_id": 30257,
        "name": "FENGYUN 1C DEB",
        "group": "fengyun-1c-debris",
        "lat": 8.644125307356907,
        "lon": 175.81133787200622,
        "alt_km": 867.8640413532003,
        "timestamp": "2025-12-22T04:03:39.444098+00:00",
        "meta_object_name": "FENGYUN 1C DEB",
        "meta_object_id": "1999-025XS",
        "meta_epoch": "2025-12-21T12:31:22.065888",
        "meta_mean_motion": 14.09728344,
        "meta_eccentricity": 0.00596923,
        "meta_inclination": 98.7496,
        "meta_ra_of_asc_node": 353.8405,
        "meta_arg_of_pericenter": 74.8412,
        "meta_mean_anomaly": 51.7638,
        "meta_ephemeris_type": 0,
        "meta_classification_type": "U",
        "meta_norad_cat_id": 30257,
        "meta_element_set_no": 999,
        "meta_rev_at_epoch": 97341,
        "meta_bstar": 0.00016653401,
        "meta_mean_motion_dot": 2.55e-06,
        "meta_mean_motion_ddot": 0,
        "tle_line1": "1 30257U 99025XS  25355.52178317  .00000255  00000+0  16653-3 0  9991",
        "tle_line2": "2 30257  98.7496 353.8405 0059692  74.8412  51.7638 14.09728344973413"
      },
      "geometry": {
        "type": "Point",
        "coordinates": [
          175.81133787200622,
          8.644125307356907
        ]
      }
    },
    {
      "type": "Feature",
      "properties": {
        "norad_id": 30259,
        "name": "FENGYUN 1C DEB",
        "group": "fengyun-1c-debris",
        "lat": -11.642667370322847,
        "lon": 26.4773757311786,
        "alt_km": 607.5727342577375,
        "timestamp": "2025-12-22T04:03:39.444108+00:00",
        "meta_object_name": "FENGYUN 1C DEB",
        "meta_object_id": "1999-025XU",
        "meta_epoch": "2025-12-21T20:38:15.118080",
        "meta_mean_motion": 14.51547433,
        "meta_eccentricity": 0.0242004,
        "meta_inclination": 98.7608,
        "meta_ra_of_asc_node": 207.9756,
        "meta_arg_of_pericenter": 240.5374,
        "meta_mean_anomaly": 137.7773,
        "meta_ephemeris_type": 0,
        "meta_classification_type": "U",
        "meta_norad_cat_id": 30259,
        "meta_element_set_no": 999,
        "meta_rev_at_epoch": 99607,
        "meta_bstar": 0.00035948,
        "meta_mean_motion_dot": 2.042e-05,
        "meta_mean_motion_ddot": 0,
        "tle_line1": "1 30259U 99025XU  25355.85989720  .00002042  00000+0  35948-3 0  9991",
        "tle_line2": "2 30259  98.7608 207.9756 0242004 240.5374 137.7773 14.51547433996075"
      },
      "geometry": {
        "type": "Point",
        "coordinates": [
          26.4773757311786,
          -11.642667370322847
        ]
      }
    },
    {
      "type": "Feature",
      "properties": {
        "norad_id": 30263,
        "name": "FENGYUN 1C DEB",
        "group": "fengyun-1c-debris",
        "lat": 62.46010596115146,
        "lon": 93.59611538568791,
        "alt_km": 880.4966110853065,
        "timestamp": "2025-12-22T04:03:39.444118+00:00",
        "meta_object_name": "FENGYUN 1C DEB",
        "meta_object_id": "1999-025XY",
        "meta_epoch": "2025-12-20T07:28:46.628256",
        "meta_mean_motion": 14.01494898,
        "meta_eccentricity": 0.01444826,
        "meta_inclination": 98.9351,
        "meta_ra_of_asc_node": 109.3367,
        "meta_arg_of_pericenter": 339.2977,
        "meta_mean_anomaly": 76.0019,
        "meta_ephemeris_type": 0,
        "meta_classification_type": "U",
        "meta_norad_cat_id": 30263,
        "meta_element_set_no": 999,
        "meta_rev_at_epoch": 96131,
        "meta_bstar": 0.00070985244,
        "meta_mean_motion_dot": 1.131e-05,
        "meta_mean_motion_ddot": 0,
        "tle_line1": "1 30263U 99025XY  25354.31165079  .00001131  00000+0  70985-3 0  9997",
        "tle_line2": "2 30263  98.9351 109.3367 0144482 339.2977  76.0019 14.01494898961314"
      },
      "geometry": {
        "type": "Point",
        "coordinates": [
          93.59611538568791,
          62.46010596115146
        ]
      }
    }
  ]
}